H1 CPF 01  gfz 2021 10 19 00  7921 terrasarx 
H2 0702601  6201 31698    2021 10 19 00 59 42 2021 10 24 00 00 42   120 1 1  0 0 0
H9
10 0 59506  20142.000000  0   -3107493.135    454706.685   6120493.013
10 0 59506  20262.000000  0   -2268486.636    614007.556   6464614.101
10 0 59506  20382.000000  0   -1387329.257    747540.685   6695113.051
10 0 59506  20502.000000  0    -479880.803    852379.584   6807967.855
10 0 59506  20622.000000  0     437504.712    926379.514   6801211.509
10 0 59506  20742.000000  0    1348272.711    968219.985   6674963.810
10 0 59506  20862.000000  0    2235965.577    977428.615   6431429.470
10 0 59506  20982.000000  0    3084519.164    954385.265   6074862.379
10 0 59506  21102.000000  0    3878555.132    900306.606   5611496.364
10 0 59506  21222.000000  0    4603662.492    817211.670   5049441.110
10 0 59506  21342.000000  0    5246664.084    707868.173   4398547.472
10 0 59506  21462.000000  0    5795865.436    575721.253   3670240.630
10 0 59506  21582.000000  0    6241277.798    424806.521   2877321.287
10 0 59506  21702.000000  0    6574808.786    259648.320   2033739.649
10 0 59506  21822.000000  0    6790419.085     85144.797   1154348.267
10 0 59506  21942.000000  0    6884239.325    -93555.406    254634.084
10 0 59506  22062.000000  0    6854643.910   -271183.316   -649562.057
10 0 59506  22182.000000  0    6702279.016   -442483.118  -1542333.858
10 0 59506  22302.000000  0    6430044.716   -602345.083  -2407997.806
10 0 59506  22422.000000  0    6043031.621   -745934.701  -3231375.151
10 0 59506  22542.000000  0    5548415.095   -868814.899  -3998061.650
10 0 59506  22662.000000  0    4955309.630   -967057.754  -4694679.732
10 0 59506  22782.000000  0    4274588.584  -1037343.051  -5309107.690
10 0 59506  22902.000000  0    3518674.538  -1077042.712  -5830683.731
10 0 59506  23022.000000  0    2701303.934  -1084289.454  -6250381.420
10 0 59506  23142.000000  0    1837272.605  -1058026.901  -6560954.539
10 0 59506  23262.000000  0     942167.097   -998041.326  -6757051.012
10 0 59506  23382.000000  0      32086.231   -904975.967  -6835295.912
10 0 59506  23502.000000  0    -876643.389   -780325.769  -6794342.885
10 0 59506  23622.000000  0   -1767753.149   -626413.971  -6634895.045
10 0 59506  23742.000000  0   -2625317.589   -446349.831  -6359693.836
10 0 59506  23862.000000  0   -3434032.211   -243969.017  -5973475.911
10 0 59506  23982.000000  0   -4179482.551    -23756.902  -5482901.704
10 0 59506  24102.000000  0   -4848402.328    209244.219  -4896451.259
10 0 59506  24222.000000  0   -5428913.090    449541.860  -4224289.418
10 0 59506  24342.000000  0   -5910744.196    691313.628  -3478101.156
10 0 59506  24462.000000  0   -6285426.013    928538.403  -2670896.633
10 0 59506  24582.000000  0   -6546451.559   1155135.281  -1816789.013
10 0 59506  24702.000000  0   -6689402.390   1365107.082   -930749.215
10 0 59506  24822.000000  0   -6712035.978   1552685.567    -28339.657
10 0 59506  24942.000000  0   -6614327.276   1712472.837    874566.288
10 0 59506  25062.000000  0   -6398466.931   1839577.395   1762070.693
10 0 59506  25182.000000  0   -6068815.396   1929740.760   2618540.131
10 0 59506  25302.000000  0   -5631812.766   1979450.701   3428890.160
10 0 59506  25422.000000  0   -5095846.403   1986037.624   4178858.277
10 0 59506  25542.000000  0   -4471080.927   1947752.519   4855258.460
10 0 59506  25662.000000  0   -3769256.275   1863824.837   5446213.090
10 0 59506  25782.000000  0   -3003459.172   1734499.317   5941359.596
10 0 59506  25902.000000  0   -2187871.264   1561051.195   6332029.336
10 0 59506  26022.000000  0   -1337499.209   1345778.471   6611393.534
10 0 59506  26142.000000  0    -467894.508   1091972.127   6774575.302
10 0 59506  26262.000000  0     405131.299    803865.605   6818728.453
10 0 59506  26382.000000  0    1265793.101    486563.734   6743083.817
10 0 59506  26502.000000  0    2098616.232    145952.726   6548961.675
10 0 59506  26622.000000  0    2888713.604   -211408.067   6239751.019
10 0 59506  26742.000000  0    3622053.009   -578411.243   5820855.041
10 0 59506  26862.000000  0    4285709.370   -947540.691   5299601.725
10 0 59506  26982.000000  0    4868097.197  -1311023.799   4685121.791
10 0 59506  27102.000000  0    5359179.994  -1660992.781   3988194.558
10 0 59506  27222.000000  0    5750652.256  -1989652.172   3221062.573
10 0 59506  27342.000000  0    6036089.066  -2289449.907   2397217.417
10 0 59506  27462.000000  0    6211059.086  -2553246.759   1531160.579
10 0 59506  27582.000000  0    6273199.308  -2774479.979    638144.035
10 0 59506  27702.000000  0    6222248.246  -2947317.757   -266106.046
10 0 59506  27822.000000  0    6060036.622  -3066799.739  -1165674.738
10 0 59506  27942.000000  0    5790434.894  -3128959.953  -2044748.376
10 0 59506  28062.000000  0    5419259.343  -3130928.754  -2887899.508
10 0 59506  28182.000000  0    4954141.607  -3071011.898  -3680362.541
10 0 59506  28302.000000  0    4404363.874  -2948745.468  -4408293.781
10 0 59506  28422.000000  0    3780664.728  -2764925.520  -5059011.890
10 0 59506  28542.000000  0    3095019.826  -2521610.992  -5621212.671
10 0 59506  28662.000000  0    2360406.054  -2222101.784  -6085155.125
10 0 59506  28782.000000  0    1590553.891  -1870893.641  -6442820.427
10 0 59506  28902.000000  0     799689.425  -1473608.293  -6688040.885
10 0 59506  29022.000000  0       2273.221  -1036902.014  -6816595.193
10 0 59506  29142.000000  0    -787259.326   -568354.874  -6826272.688
10 0 59506  29262.000000  0   -1554752.985    -76341.910  -6716907.038
10 0 59506  29382.000000  0   -2286580.931    430113.170  -6490378.272
10 0 59506  29502.000000  0   -2969880.920    941498.854  -6150583.430
10 0 59506  29622.000000  0   -3592777.298   1447989.619  -5703377.364
10 0 59506  29742.000000  0   -4144587.716   1939630.203  -5156483.074
10 0 59506  29862.000000  0   -4616010.427   2406528.578  -4519370.074
10 0 59506  29982.000000  0   -4999287.328   2839053.953  -3803100.515
10 0 59506  30102.000000  0   -5288339.341   3228034.158  -3020146.490
10 0 59506  30222.000000  0   -5478872.821   3564950.505  -2184180.242
10 0 59506  30342.000000  0   -5568451.934   3842125.125  -1309838.271
10 0 59506  30462.000000  0   -5556535.503   4052894.795   -412463.816
10 0 59506  30582.000000  0   -5444476.092   4191767.527    492166.976
10 0 59506  30702.000000  0   -5235480.825   4254557.611   1388131.011
10 0 59506  30822.000000  0   -4934532.813   4238493.514   2259648.134
10 0 59506  30942.000000  0   -4548277.049   4142297.282   3091367.399
10 0 59506  31062.000000  0   -4084873.875   3966234.538   3868645.041
10 0 59506  31182.000000  0   -3553823.311   3712131.407   4577807.667
10 0 59506  31302.000000  0   -2965765.784   3383359.900   5206395.089
10 0 59506  31422.000000  0   -2332263.074   2984791.819   5743378.776
10 0 59506  31542.000000  0   -1665565.733   2522723.000   6179352.133
10 0 59506  31662.000000  0    -978371.372   2004769.256   6506689.793
10 0 59506  31782.000000  0    -283580.951   1439736.882   6719672.885
10 0 59506  31902.000000  0     405942.843    837470.825   6814583.683
10 0 59506  32022.000000  0    1077613.457    208682.304   6789766.012
10 0 59506  32142.000000  0    1719348.939   -435240.913   6645652.262
10 0 59506  32262.000000  0    2319788.472  -1082440.168   6384757.067
10 0 59506  32382.000000  0    2868493.560  -1720803.421   6011636.628
10 0 59506  32502.000000  0    3356131.984  -2338191.867   5532814.772
10 0 59506  32622.000000  0    3774639.894  -2922671.701   4956674.333
10 0 59506  32742.000000  0    4117359.666  -3462746.903   4293316.478
10 0 59506  32862.000000  0    4379150.775  -3947589.077   3554388.115
10 0 59506  32982.000000  0    4556471.285  -4367259.139   2752879.817
10 0 59506  33102.000000  0    4647428.161  -4712915.473   1902896.572
10 0 59506  33222.000000  0    4651793.708  -4977002.759   1019405.488
10 0 59506  33342.000000  0    4570987.650  -5153417.692    117966.008
10 0 59506  33462.000000  0    4408025.359  -5237646.281   -785551.630
10 0 59506  33582.000000  0    4167435.195  -5226870.351  -1675254.552
10 0 59506  33702.000000  0    3855143.938  -5120039.008  -2535515.574
10 0 59506  33822.000000  0    3478335.531  -4917904.159  -3351253.944
10 0 59506  33942.000000  0    3045286.405  -4623019.222  -4108203.161
10 0 59506  34062.000000  0    2565182.223  -4239703.004  -4793160.508
10 0 59506  34182.000000  0    2047920.436  -3773968.000  -5394213.486
10 0 59506  34302.000000  0    1503904.915  -3233417.168  -5900937.818
10 0 59506  34422.000000  0     943837.062  -2627113.936  -6304567.944
10 0 59506  34542.000000  0     378506.264  -1965425.883  -6598138.495
10 0 59506  34662.000000  0    -181415.506  -1259844.642  -6776593.734
10 0 59506  34782.000000  0    -725570.389   -522786.626  -6836864.925
10 0 59506  34902.000000  0   -1244101.000    232621.914  -6777916.870
10 0 59506  35022.000000  0   -1727825.004    992772.805  -6600763.067
10 0 59506  35142.000000  0   -2168393.849   1743814.889  -6308450.138
10 0 59506  35262.000000  0   -2558434.095   2471900.049  -5906011.344
10 0 59506  35382.000000  0   -2891670.868   3163434.366  -5400389.952
10 0 59506  35502.000000  0   -3163030.357   3805330.709  -4800331.047
10 0 59506  35622.000000  0   -3368720.803   4385258.519  -4116241.646
10 0 59506  35742.000000  0   -3506288.137   4891884.950  -3360018.930
10 0 59506  35862.000000  0   -3574644.625   5315101.314  -2544850.796
10 0 59506  35982.000000  0   -3574072.034   5646232.116  -1684991.856
10 0 59506  36102.000000  0   -3506197.260   5878221.776   -795515.285
10 0 59506  36222.000000  0   -3373939.256   6005791.331    107955.070
10 0 59506  36342.000000  0   -3181431.089   6025561.317   1009524.374
10 0 59506  36462.000000  0   -2933915.985   5936138.494   1893316.675
10 0 59506  36582.000000  0   -2637618.321   5738160.531   2743765.217
99
